start=new Date('2021-09-23T00:00:00.000Z').valueOf();
sats=[{"SEMIMAJOR_AXIS":"6925.381","ECCENTRICITY":"0.00010860","GP_ID":"185268660","ELEMENT_SET_NO":"999","EPHEMERIS_TYPE":"0","MEAN_ANOMALY":"261.4844","PERIOD":"95.593","APOAPSIS":"547.998","RCS_SIZE":"LARGE","FILE":"3123736","RA_OF_ASC_NODE":"344.8336","CLASSIFICATION_TYPE":"U","BSTAR":"0.00010967000000","LAUNCH_DATE":"2021-03-11","DECAY_DATE":null,"MEAN_MOTION":"15.06389336","COUNTRY_CODE":"US","PERIAPSIS":"546.494","EPOCH":"2021-09-22T14:37:52.630752","MEAN_MOTION_DDOT":"0.0000000000000","TIME_SYSTEM":"UTC","OBJECT_TYPE":"PAYLOAD","OBJECT_ID":"2021-018BC","NORAD_CAT_ID":"47837","TLE_LINE2":"2 47837  53.0588 344.8336 0001086  98.6268 261.4844 15.06389336 31349","TLE_LINE1":"1 47837U 21018BC  21265.60963693  .00001352  00000-0  10967-3 0  9996","REF_FRAME":"TEME","SITE":"AFETR","ARG_OF_PERICENTER":"98.6268","INCLINATION":"53.0588","CENTER_NAME":"EARTH","REV_AT_EPOCH":"3134","MEAN_MOTION_DOT":"0.00001352","MEAN_ELEMENT_THEORY":"SGP4","OBJECT_NAME":"STARLINK-2427"},{"OBJECT_NAME":"STARLINK-2429","MEAN_ELEMENT_THEORY":"SGP4","MEAN_MOTION_DOT":"0.00001368","REV_AT_EPOCH":"3106","CENTER_NAME":"EARTH","INCLINATION":"53.0579","ARG_OF_PERICENTER":"97.7038","REF_FRAME":"TEME","SITE":"AFETR","TLE_LINE1":"1 47838U 21018BD  21265.68886614  .00001368  00000-0  11071-3 0  9996","TLE_LINE2":"2 47838  53.0579   4.4930 0001186  97.7038 262.4086 15.06400904 31068","NORAD_CAT_ID":"47838","OBJECT_ID":"2021-018BD","OBJECT_TYPE":"PAYLOAD","TIME_SYSTEM":"UTC","MEAN_MOTION_DDOT":"0.0000000000000","EPOCH":"2021-09-22T16:31:58.034496","PERIAPSIS":"546.389","DECAY_DATE":null,"COUNTRY_CODE":"US","MEAN_MOTION":"15.06400904","LAUNCH_DATE":"2021-03-11","BSTAR":"0.00011071000000","CLASSIFICATION_TYPE":"U","FILE":"3123736","RA_OF_ASC_NODE":"4.4930","APOAPSIS":"548.032","RCS_SIZE":"LARGE","PERIOD":"95.592","MEAN_ANOMALY":"262.4086","EPHEMERIS_TYPE":"0","ELEMENT_SET_NO":"999","ECCENTRICITY":"0.00011860","GP_ID":"185268888","SEMIMAJOR_AXIS":"6925.346"},{"MEAN_MOTION":"15.27878536","DECAY_DATE":null,"COUNTRY_CODE":"US","PERIAPSIS":"481.308","EPOCH":"2021-09-22T12:20:44.007936","CLASSIFICATION_TYPE":"U","BSTAR":"0.00030870000000","LAUNCH_DATE":"2021-03-11","RA_OF_ASC_NODE":"342.3227","FILE":"3123602","APOAPSIS":"483.007","RCS_SIZE":"LARGE","EPHEMERIS_TYPE":"0","MEAN_ANOMALY":"293.8914","PERIOD":"94.248","GP_ID":"185244029","ECCENTRICITY":"0.00012380","ELEMENT_SET_NO":"999","SEMIMAJOR_AXIS":"6860.292","MEAN_ELEMENT_THEORY":"SGP4","OBJECT_NAME":"STARLINK-2431","CENTER_NAME":"EARTH","MEAN_MOTION_DOT":"0.00008173","REV_AT_EPOCH":"3103","ARG_OF_PERICENTER":"66.2214","INCLINATION":"53.0547","TLE_LINE1":"1 47839U 21018BE  21265.51439824  .00008173  00000-0  30870-3 0  9995","REF_FRAME":"TEME","SITE":"AFETR","TLE_LINE2":"2 47839  53.0547 342.3227 0001238  66.2214 293.8914 15.27878536 31030","NORAD_CAT_ID":"47839","OBJECT_ID":"2021-018BE","OBJECT_TYPE":"PAYLOAD","MEAN_MOTION_DDOT":"0.0000000000000","TIME_SYSTEM":"UTC"},{"ECCENTRICITY":"0.00008600","GP_ID":"185267909","ELEMENT_SET_NO":"999","SEMIMAJOR_AXIS":"6925.378","RCS_SIZE":"LARGE","APOAPSIS":"547.839","MEAN_ANOMALY":"226.8997","EPHEMERIS_TYPE":"0","PERIOD":"95.593","FILE":"3123736","RA_OF_ASC_NODE":"344.9018","DECAY_DATE":null,"MEAN_MOTION":"15.06390271","COUNTRY_CODE":"US","EPOCH":"2021-09-22T14:16:38.941824","PERIAPSIS":"546.648","BSTAR":"-0.00005573100000","CLASSIFICATION_TYPE":"U","LAUNCH_DATE":"2021-03-11","OBJECT_TYPE":"PAYLOAD","MEAN_MOTION_DDOT":"0.0000000000000","TIME_SYSTEM":"UTC","NORAD_CAT_ID":"47840","TLE_LINE2":"2 47840  53.0545 344.9018 0000860 133.2064 226.8997 15.06390271 31336","OBJECT_ID":"2021-018BF","INCLINATION":"53.0545","ARG_OF_PERICENTER":"133.2064","REF_FRAME":"TEME","SITE":"AFETR","TLE_LINE1":"1 47840U 21018BF  21265.59489516 -.00001111  00000-0 -55731-4 0  9999","OBJECT_NAME":"STARLINK-2432","MEAN_ELEMENT_THEORY":"SGP4","MEAN_MOTION_DOT":"-0.00001111","REV_AT_EPOCH":"3133","CENTER_NAME":"EARTH"},{"OBJECT_NAME":"STARLINK-2433","MEAN_ELEMENT_THEORY":"SGP4","REV_AT_EPOCH":"3133","MEAN_MOTION_DOT":"0.00000263","CENTER_NAME":"EARTH","INCLINATION":"53.0564","ARG_OF_PERICENTER":"121.3045","SITE":"AFETR","REF_FRAME":"TEME","TLE_LINE1":"1 47841U 21018BG  21265.59120872  .00000263  00000-0  36565-4 0  9996","TLE_LINE2":"2 47841  53.0564 344.9141 0001157 121.3045 238.8057 15.06389536 31334","NORAD_CAT_ID":"47841","OBJECT_ID":"2021-018BG","OBJECT_TYPE":"PAYLOAD","TIME_SYSTEM":"UTC","MEAN_MOTION_DDOT":"0.0000000000000","EPOCH":"2021-09-22T14:11:20.433408","PERIAPSIS":"546.444","COUNTRY_CODE":"US","DECAY_DATE":null,"MEAN_MOTION":"15.06389536","LAUNCH_DATE":"2021-03-11","BSTAR":"0.00003656500000","CLASSIFICATION_TYPE":"U","FILE":"3123736","RA_OF_ASC_NODE":"344.9141","RCS_SIZE":"LARGE","APOAPSIS":"548.047","PERIOD":"95.593","MEAN_ANOMALY":"238.8057","EPHEMERIS_TYPE":"0","ELEMENT_SET_NO":"999","ECCENTRICITY":"0.00011570","GP_ID":"185269160","SEMIMAJOR_AXIS":"6925.381"},{"RCS_SIZE":"LARGE","APOAPSIS":"548.134","EPHEMERIS_TYPE":"0","MEAN_ANOMALY":"253.7347","PERIOD":"95.592","GP_ID":"185269388","ECCENTRICITY":"0.00013080","ELEMENT_SET_NO":"999","SEMIMAJOR_AXIS":"6925.363","MEAN_MOTION":"15.06395133","DECAY_DATE":null,"COUNTRY_CODE":"US","PERIAPSIS":"546.323","EPOCH":"2021-09-22T17:02:29.532192","CLASSIFICATION_TYPE":"U","BSTAR":"-0.00001601500000","LAUNCH_DATE":"2021-03-11","FILE":"3123736","RA_OF_ASC_NODE":"14.3884","NORAD_CAT_ID":"47842","TLE_LINE2":"2 47842  53.0575  14.3884 0001308 106.3785 253.7347 15.06395133 30989","OBJECT_ID":"2021-018BH","OBJECT_TYPE":"PAYLOAD","MEAN_MOTION_DDOT":"0.0000000000000","TIME_SYSTEM":"UTC","MEAN_ELEMENT_THEORY":"SGP4","OBJECT_NAME":"STARLINK-2434","CENTER_NAME":"EARTH","REV_AT_EPOCH":"3098","MEAN_MOTION_DOT":"-0.00000520","ARG_OF_PERICENTER":"106.3785","INCLINATION":"53.0575","TLE_LINE1":"1 47842U 21018BH  21265.71006403 -.00000520  00000-0 -16015-4 0  9990","SITE":"AFETR","REF_FRAME":"TEME"},{"TIME_SYSTEM":"UTC","MEAN_MOTION_DDOT":"0.0000000000000","OBJECT_TYPE":"PAYLOAD","OBJECT_ID":"2021-018BJ","NORAD_CAT_ID":"47843","TLE_LINE2":"2 47843  53.0573   9.5116 0001181  89.0836 271.0288 15.06405334 31012","TLE_LINE1":"1 47843U 21018BJ  21265.68288435  .00001673  00000-0  13119-3 0  9993","REF_FRAME":"TEME","SITE":"AFETR","ARG_OF_PERICENTER":"89.0836","INCLINATION":"53.0573","CENTER_NAME":"EARTH","MEAN_MOTION_DOT":"0.00001673","REV_AT_EPOCH":"3101","MEAN_ELEMENT_THEORY":"SGP4","OBJECT_NAME":"STARLINK-2435","SEMIMAJOR_AXIS":"6925.332","ELEMENT_SET_NO":"999","GP_ID":"185267660","ECCENTRICITY":"0.00011810","PERIOD":"95.592","EPHEMERIS_TYPE":"0","MEAN_ANOMALY":"271.0288","APOAPSIS":"548.015","RCS_SIZE":"LARGE","FILE":"3123736","RA_OF_ASC_NODE":"9.5116","LAUNCH_DATE":"2021-03-11","CLASSIFICATION_TYPE":"U","BSTAR":"0.00013119000000","PERIAPSIS":"546.379","EPOCH":"2021-09-22T16:23:21.207840","DECAY_DATE":null,"COUNTRY_CODE":"US","MEAN_MOTION":"15.06405334"},{"RA_OF_ASC_NODE":"5.1089","FILE":"3123417","LAUNCH_DATE":"2021-03-11","BSTAR":"0.00011894000000","CLASSIFICATION_TYPE":"U","EPOCH":"2021-09-22T13:10:16.448736","PERIAPSIS":"546.176","COUNTRY_CODE":"US","DECAY_DATE":null,"MEAN_MOTION":"15.06399303","SEMIMAJOR_AXIS":"6925.351","ELEMENT_SET_NO":"999","GP_ID":"185239217","ECCENTRICITY":"0.00015020","PERIOD":"95.592","MEAN_ANOMALY":"269.4306","EPHEMERIS_TYPE":"0","APOAPSIS":"548.256","RCS_SIZE":"LARGE","REF_FRAME":"TEME","SITE":"AFETR","TLE_LINE1":"1 47844U 21018BK  21265.54880149  .00001491  00000-0  11894-3 0  9995","INCLINATION":"53.0568","ARG_OF_PERICENTER":"90.6855","REV_AT_EPOCH":"3104","MEAN_MOTION_DOT":"0.00001491","CENTER_NAME":"EARTH","OBJECT_NAME":"STARLINK-2446","MEAN_ELEMENT_THEORY":"SGP4","TIME_SYSTEM":"UTC","MEAN_MOTION_DDOT":"0.0000000000000","OBJECT_TYPE":"PAYLOAD","OBJECT_ID":"2021-018BK","NORAD_CAT_ID":"47844","TLE_LINE2":"2 47844  53.0568   5.1089 0001502  90.6855 269.4306 15.06399303 31047"},{"CENTER_NAME":"EARTH","REV_AT_EPOCH":"3107","MEAN_MOTION_DOT":"0.00002290","MEAN_ELEMENT_THEORY":"SGP4","OBJECT_NAME":"STARLINK-2453","TLE_LINE1":"1 47845U 21018BL  21265.69993360  .00002290  00000-0  17254-3 0  9996","SITE":"AFETR","REF_FRAME":"TEME","ARG_OF_PERICENTER":"127.6289","INCLINATION":"53.0555","OBJECT_ID":"2021-018BL","NORAD_CAT_ID":"47845","TLE_LINE2":"2 47845  53.0555   4.4454 0001458 127.6289 232.4832 15.06409431 31075","TIME_SYSTEM":"UTC","MEAN_MOTION_DDOT":"0.0000000000000","OBJECT_TYPE":"PAYLOAD","LAUNCH_DATE":"2021-03-11","CLASSIFICATION_TYPE":"U","BSTAR":"0.00017254000000","PERIAPSIS":"546.175","EPOCH":"2021-09-22T16:47:54.263040","COUNTRY_CODE":"US","DECAY_DATE":null,"MEAN_MOTION":"15.06409431","FILE":"3123736","RA_OF_ASC_NODE":"4.4454","PERIOD":"95.592","EPHEMERIS_TYPE":"0","MEAN_ANOMALY":"232.4832","RCS_SIZE":"LARGE","APOAPSIS":"548.194","SEMIMAJOR_AXIS":"6925.320","ELEMENT_SET_NO":"999","GP_ID":"185268661","ECCENTRICITY":"0.00014580"},{"MEAN_ELEMENT_THEORY":"SGP4","OBJECT_NAME":"STARLINK-2456","CENTER_NAME":"EARTH","MEAN_MOTION_DOT":"0.00000015","REV_AT_EPOCH":"3112","ARG_OF_PERICENTER":"81.5325","INCLINATION":"53.0561","TLE_LINE1":"1 47846U 21018BM  21265.69625115  .00000015  00000-0  19916-4 0  9998","REF_FRAME":"TEME","SITE":"AFETR","NORAD_CAT_ID":"47846","TLE_LINE2":"2 47846  53.0561   4.4614 0001146  81.5325 278.5794 15.06398645 31122","OBJECT_ID":"2021-018BM","OBJECT_TYPE":"PAYLOAD","MEAN_MOTION_DDOT":"0.0000000000000","TIME_SYSTEM":"UTC","DECAY_DATE":null,"MEAN_MOTION":"15.06398645","COUNTRY_CODE":"US","PERIAPSIS":"546.424","EPOCH":"2021-09-22T16:42:36.099360","CLASSIFICATION_TYPE":"U","BSTAR":"0.00001991600000","LAUNCH_DATE":"2021-03-11","RA_OF_ASC_NODE":"4.4614","FILE":"3123736","APOAPSIS":"548.011","RCS_SIZE":"LARGE","EPHEMERIS_TYPE":"0","MEAN_ANOMALY":"278.5794","PERIOD":"95.592","ECCENTRICITY":"0.00011460","GP_ID":"185268889","ELEMENT_SET_NO":"999","SEMIMAJOR_AXIS":"6925.353"}];
